ONEWEB-0363             
1 49289U 21090L   24185.53566572  .00000051  00000+0  93056-4 0  9995
2 49289  87.9200  56.4253 0001888  92.6526 267.4823 13.20770970136930
ONEWEB-0364             
1 49290U 21090M   24185.57353697  .00000057  00000+0  10918-3 0  9994
2 49290  87.9200  56.4431 0001922  83.7603 276.3749 13.20773154138065
ONEWEB-0365             
1 49291U 21090N   24185.21996210  .00000057  00000+0  10920-3 0  9993
2 49291  87.9144  87.0402 0001955  74.5157 285.6191 13.19727714133540
ONEWEB-0366             
1 49292U 21090P   24184.76600226  .00000188  00000+0  47247-3 0  9999
2 49292  87.8960  71.8500 0002039  79.6272 280.5088 13.14501359133701
ONEWEB-0367             
1 49293U 21090Q   24185.38257093  .00000073  00000+0  14817-3 0  9999
2 49293  87.9203  56.4504 0002078  81.2242 278.9126 13.20770328136905
ONEWEB-0368             
1 49294U 21090R   24185.20422525  .00000083  00000+0  17104-3 0  9998
2 49294  87.9200  56.5162 0002677  88.7733 271.3707 13.20773627138039
ONEWEB-0369             
1 49295U 21090S   24185.44267059  .00000071  00000+0  14485-3 0  9990
2 49295  87.9152  86.9999 0002078  75.5831 284.5533 13.19727582133562
ONEWEB-0370             
1 49296U 21090T   24184.71023199  .00000031  00000+0  45314-4 0  9997
2 49296  87.9202  56.5889 0001468  76.9977 283.1320 13.20771440135552
